{"type": "FeatureCollection", "features": [ {"type": "Feature", "properties": {"norad_id": 66052, "name": "HRC MONOBLOCK CAMERA", "group": "stations", "lat": -38.640347759788085, "lon": -61.1809806517794, "alt_km": 404.91793742467144, "timestamp": "2025-12-25T03:55:54.991405+00:00", "meta": {"OBJECT_NAME": "HRC MONOBLOCK CAMERA", "OBJECT_ID": "1998-067XR", "EPOCH": "2025-12-23T23:10:15.977280", "MEAN_MOTION": 15.54901889, "ECCENTRICITY": 0.0002152, "INCLINATION": 51.6306, "RA_OF_ASC_NODE": 85.5033, "ARG_OF_PERICENTER": 238.968, "MEAN_ANOMALY": 121.11, "EPHEMERIS_TYPE": 0, "CLASSIFICATION_TYPE": "U", "NORAD_CAT_ID": 66052, "ELEMENT_SET_NO": 999, "REV_AT_EPOCH": 1058, "BSTAR": 0.0005004, "MEAN_MOTION_DOT": 0.00033738, "MEAN_MOTION_DDOT": 0}, "tle": {"line1": "1 66052U 98067XR  25357.96546270  .00033738  00000+0  50040-3 0  9995", "line2": "2 66052  51.6306  85.5033 0002152 238.9680 121.1100 15.54901889 10582"}}, "geometry": {"type": "Point", "coordinates": [-61.1809806517794, -38.640347759788085]}}, {"type": "Feature", "properties": {"norad_id": 66174, "name": "HTV-X1", "group": "stations", "lat": -51.454215849626074, "lon": -15.138810244611907, "alt_km": 420.09368246158374, "timestamp": "2025-12-25T03:55:54.991415+00:00", "meta": {"OBJECT_NAME": "HTV-X1", "OBJECT_ID": "2025-241A", "EPOCH": "2025-12-24T05:07:18.077088", "MEAN_MOTION": 15.49773492, "ECCENTRICITY": 0.00031703, "INCLINATION": 51.6319, "RA_OF_ASC_NODE": 85.6574, "ARG_OF_PERICENTER": 294.284, "MEAN_ANOMALY": 65.7818, "EPHEMERIS_TYPE": 0, "CLASSIFICATION_TYPE": "U", "NORAD_CAT_ID": 66174, "ELEMENT_SET_NO": 999, "REV_AT_EPOCH": 51, "BSTAR": 0.00022737508, "MEAN_MOTION_DOT": 0.0001244, "MEAN_MOTION_DDOT": 0}, "tle": {"line1": "1 66174U 25241A   25358.21340367  .00012440  00000+0  22738-3 0  9992", "line2": "2 66174  51.6319  85.6574 0003170 294.2840  65.7818 15.49773492   518"}}, "geometry": {"type": "Point", "coordinates": [-15.138810244611907, -51.454215849626074]}}, {"type": "Feature", "properties": {"norad_id": 66515, "name": "SZ-21 MODULE", "group": "stations", "lat": -12.927941622278333, "lon": 135.28182630181252, "alt_km": 381.7067923060804, "timestamp": "2025-12-25T03:55:54.991425+00:00", "meta": {"OBJECT_NAME": "SZ-21 MODULE", "OBJECT_ID": "2025-246C", "EPOCH": "2025-12-24T13:16:51.561984", "MEAN_MOTION": 15.63097156, "ECCENTRICITY": 0.0004724, "INCLINATION": 41.4769, "RA_OF_ASC_NODE": 303.9494, "ARG_OF_PERICENTER": 323.7646, "MEAN_ANOMALY": 36.2873, "EPHEMERIS_TYPE": 0, "CLASSIFICATION_TYPE": "U", "NORAD_CAT_ID": 66515, "ELEMENT_SET_NO": 999, "REV_AT_EPOCH": 629, "BSTAR": 0.00031177, "MEAN_MOTION_DOT": 0.0002901, "MEAN_MOTION_DDOT": 0}, "tle": {"line1": "1 66515U 25246C   25358.55337456  .00029010  00000+0  31177-3 0  9996", "line2": "2 66515  41.4769 303.9494 0004724 323.7646  36.2873 15.63097156  6295"}}, "geometry": {"type": "Point", "coordinates": [135.28182630181252, -12.927941622278333]}}, {"type": "Feature", "properties": {"norad_id": 66645, "name": "SHENZHOU-22", "group": "stations", "lat": 24.96452415623101, "lon": 89.43605148491059, "alt_km": 379.01209962425037, "timestamp": "2025-12-25T03:55:54.991436+00:00", "meta": {"OBJECT_NAME": "SHENZHOU-22", "OBJECT_ID": "2025-272A", "EPOCH": "2025-12-24T05:49:05.894976", "MEAN_MOTION": 15.59630763, "ECCENTRICITY": 0.00081096, "INCLINATION": 41.4687, "RA_OF_ASC_NODE": 306.8504, "ARG_OF_PERICENTER": 132.6319, "MEAN_ANOMALY": 227.5205, "EPHEMERIS_TYPE": 0, "CLASSIFICATION_TYPE": "U", "NORAD_CAT_ID": 66645, "ELEMENT_SET_NO": 999, "REV_AT_EPOCH": 26550, "BSTAR": 0.00022952509, "MEAN_MOTION_DOT": 0.00018555, "MEAN_MOTION_DDOT": 0}, "tle": {"line1": "1 66645U 25272A   25358.24242934  .00018555  00000+0  22953-3 0  9995", "line2": "2 66645  41.4687 306.8504 0008109 132.6319 227.5205 15.59630763265504"}}, "geometry": {"type": "Point", "coordinates": [89.43605148491059, 24.96452415623101]}}, {"type": "Feature", "properties": {"norad_id": 66664, "name": "SOYUZ-MS 28", "group": "stations", "lat": -51.454467353823574, "lon": -15.131323454049008, "alt_km": 420.08376271330417, "timestamp": "2025-12-25T03:55:54.991446+00:00", "meta": {"OBJECT_NAME": "SOYUZ-MS 28", "OBJECT_ID": "2025-275A", "EPOCH": "2025-12-24T12:51:34.606944", "MEAN_MOTION": 15.49782856, "ECCENTRICITY": 0.0003183, "INCLINATION": 51.6318, "RA_OF_ASC_NODE": 84.0604, "ARG_OF_PERICENTER": 295.6588, "MEAN_ANOMALY": 64.4071, "EPHEMERIS_TYPE": 0, "CLASSIFICATION_TYPE": "U", "NORAD_CAT_ID": 66664, "ELEMENT_SET_NO": 999, "REV_AT_EPOCH": 427, "BSTAR": 0.00023993, "MEAN_MOTION_DOT": 0.00013157, "MEAN_MOTION_DDOT": 0}, "tle": {"line1": "1 66664U 25275A   25358.53581721  .00013157  00000+0  23993-3 0  9999", "line2": "2 66664  51.6318  84.0604 0003183 295.6588  64.4071 15.49782856  4274"}}, "geometry": {"type": "Point", "coordinates": [-15.131323454049008, -51.454467353823574]}}, {"type": "Feature", "properties": {"norad_id": 66906, "name": "1998-067XS", "group": "stations", "lat": -7.164935205333869, "lon": 75.05533928764308, "alt_km": 414.6939386446538, "timestamp": "2025-12-25T03:55:54.991458+00:00", "meta": {"OBJECT_NAME": "1998-067XS", "OBJECT_ID": "1998-067XS", "EPOCH": "2025-12-23T13:19:00.111360", "MEAN_MOTION": 15.51136039, "ECCENTRICITY": 0.00028154, "INCLINATION": 51.6316, "RA_OF_ASC_NODE": 88.7613, "ARG_OF_PERICENTER": 256.8779, "MEAN_ANOMALY": 103.1896, "EPHEMERIS_TYPE": 0, "CLASSIFICATION_TYPE": "U", "NORAD_CAT_ID": 66906, "ELEMENT_SET_NO": 999, "REV_AT_EPOCH": 329, "BSTAR": 0.00048512679, "MEAN_MOTION_DOT": 0.0002847, "MEAN_MOTION_DDOT": 0}, "tle": {"line1": "1 66906U 98067XS  25357.55486240  .00028470  00000+0  48513-3 0  9997", "line2": "2 66906  51.6316  88.7613 0002815 256.8779 103.1896 15.51136039  3290"}}, "geometry": {"type": "Point", "coordinates": [75.05533928764308, -7.164935205333869]}}, {"type": "Feature", "properties": {"norad_id": 66907, "name": "1998-067XT", "group": "stations", "lat": 45.125036728672804, "lon": 133.34134979274145, "alt_km": 403.4597435376563, "timestamp": "2025-12-25T03:55:54.991469+00:00", "meta": {"OBJECT_NAME": "1998-067XT", "OBJECT_ID": "1998-067XT", "EPOCH": "2025-12-23T11:29:49.841376", "MEAN_MOTION": 15.52745506, "ECCENTRICITY": 0.0003882, "INCLINATION": 51.6313, "RA_OF_ASC_NODE": 89.0045, "ARG_OF_PERICENTER": 291.7662, "MEAN_ANOMALY": 68.2915, "EPHEMERIS_TYPE": 0, "CLASSIFICATION_TYPE": "U", "NORAD_CAT_ID": 66907, "ELEMENT_SET_NO": 999, "REV_AT_EPOCH": 328, "BSTAR": 0.0010348952, "MEAN_MOTION_DOT": 0.00065231, "MEAN_MOTION_DDOT": 0}, "tle": {"line1": "1 66907U 98067XT  25357.47904909  .00065231  00000+0  10349-2 0  9997", "line2": "2 66907  51.6313  89.0045 0003882 291.7662  68.2915 15.52745506  3283"}}, "geometry": {"type": "Point", "coordinates": [133.34134979274145, 45.125036728672804]}}, {"type": "Feature", "properties": {"norad_id": 66908, "name": "1998-067XU", "group": "stations", "lat": 47.749536268187946, "lon": 141.32001506301148, "alt_km": 403.08958580143826, "timestamp": "2025-12-25T03:55:54.991479+00:00", "meta": {"OBJECT_NAME": "1998-067XU", "OBJECT_ID": "1998-067XU", "EPOCH": "2025-12-23T11:28:24.726144", "MEAN_MOTION": 15.52842233, "ECCENTRICITY": 0.00039209, "INCLINATION": 51.6312, "RA_OF_ASC_NODE": 88.9976, "ARG_OF_PERICENTER": 289.9814, "MEAN_ANOMALY": 70.0754, "EPHEMERIS_TYPE": 0, "CLASSIFICATION_TYPE": "U", "NORAD_CAT_ID": 66908, "ELEMENT_SET_NO": 999, "REV_AT_EPOCH": 328, "BSTAR": 0.0010206619, "MEAN_MOTION_DOT": 0.00064549, "MEAN_MOTION_DDOT": 0}, "tle": {"line1": "1 66908U 98067XU  25357.47806396  .00064549  00000+0  10207-2 0  9993", "line2": "2 66908  51.6312  88.9976 0003920 289.9814  70.0754 15.52842233  3282"}}, "geometry": {"type": "Point", "coordinates": [141.32001506301148, 47.749536268187946]}}, {"type": "Feature", "properties": {"norad_id": 66909, "name": "SILVERSAT", "group": "stations", "lat": 50.49270274579456, "lon": 154.50523788041218, "alt_km": 402.0176724591838, "timestamp": "2025-12-25T03:55:54.991489+00:00", "meta": {"OBJECT_NAME": "SILVERSAT", "OBJECT_ID": "1998-067XV", "EPOCH": "2025-12-24T05:58:18.632928", "MEAN_MOTION": 15.53164124, "ECCENTRICITY": 0.00038593, "INCLINATION": 51.6308, "RA_OF_ASC_NODE": 85.1451, "ARG_OF_PERICENTER": 300.0708, "MEAN_ANOMALY": 59.99, "EPHEMERIS_TYPE": 0, "CLASSIFICATION_TYPE": "U", "NORAD_CAT_ID": 66909, "ELEMENT_SET_NO": 999, "REV_AT_EPOCH": 340, "BSTAR": 0.0012166372, "MEAN_MOTION_DOT": 0.00078073, "MEAN_MOTION_DDOT": 0}, "tle": {"line1": "1 66909U 98067XV  25358.24882677  .00078073  00000+0  12166-2 0  9999", "line2": "2 66909  51.6308  85.1451 0003859 300.0708  59.9900 15.53164124  3403"}}, "geometry": {"type": "Point", "coordinates": [154.50523788041218, 50.49270274579456]}}, {"type": "Feature", "properties": {"norad_id": 66910, "name": "1998-067XW", "group": "stations", "lat": 51.60217721174292, "lon": 169.1103598948333, "alt_km": 402.8374204721549, "timestamp": "2025-12-25T03:55:54.991499+00:00", "meta": {"OBJECT_NAME": "1998-067XW", "OBJECT_ID": "1998-067XW", "EPOCH": "2025-12-24T15:11:47.467392", "MEAN_MOTION": 15.53149596, "ECCENTRICITY": 0.0003874, "INCLINATION": 51.6312, "RA_OF_ASC_NODE": 83.2108, "ARG_OF_PERICENTER": 273.1727, "MEAN_ANOMALY": 86.882, "EPHEMERIS_TYPE": 0, "CLASSIFICATION_TYPE": "U", "NORAD_CAT_ID": 66910, "ELEMENT_SET_NO": 999, "REV_AT_EPOCH": 346, "BSTAR": 0.0010216, "MEAN_MOTION_DOT": 0.00065339, "MEAN_MOTION_DDOT": 0}, "tle": {"line1": "1 66910U 98067XW  25358.63318828  .00065339  00000+0  10216-2 0  9991", "line2": "2 66910  51.6312  83.2108 0003874 273.1727  86.8820 15.53149596  3468"}}, "geometry": {"type": "Point", "coordinates": [169.1103598948333, 51.60217721174292]}}]}